[{"OBJECT_NAME":"KUIPER-00149","OBJECT_ID":"2025-228X","EPOCH":"2026-03-09T21:19:04.016352","MEAN_MOTION":14.80004702,"ECCENTRICITY":0.00017534,"INCLINATION":51.9019,"RA_OF_ASC_NODE":337.2239,"ARG_OF_PERICENTER":84.5973,"MEAN_ANOMALY":275.5189,"EPHEMERIS_TYPE":0,"CLASSIFICATION_TYPE":"U","NORAD_CAT_ID":65968,"ELEMENT_SET_NO":999,"REV_AT_EPOCH":2357,"BSTAR":0.00078763897,"MEAN_MOTION_DOT":5.798e-5,"MEAN_MOTION_DDOT":0},{"OBJECT_NAME":"FENGYUN 1C DEB","OBJECT_ID":"1999-025CFT","EPOCH":"2026-03-08T04:20:11.946048","MEAN_MOTION":14.80054847,"ECCENTRICITY":0.00244381,"INCLINATION":99.0303,"RA_OF_ASC_NODE":155.3992,"ARG_OF_PERICENTER":78.5184,"MEAN_ANOMALY":312.2433,"EPHEMERIS_TYPE":0,"CLASSIFICATION_TYPE":"U","NORAD_CAT_ID":31768,"ELEMENT_SET_NO":999,"REV_AT_EPOCH":98135,"BSTAR":0.0039629126,"MEAN_MOTION_DOT":0.00030231,"MEAN_MOTION_DDOT":0}]
